     3.00           N                   E                   RINEX VERSION / TYPE
BRD_USR             ESA                 20190105 181849  UTCPGM / RUN BY / DATE
 GAL   4.8750E+01 -1.9531E-02 -1.1597E-03  0.0000E+00       IONOSPHERIC CORR
GAUT  0.0000000000E+00 0.000000000E+00 518400 2034 GSTB   0 TIME SYSTEM CORR
GPGA -2.6484485716E-09 2.664535259E-15      0 2035 GSTB   0 TIME SYSTEM CORR
                                                            END OF HEADER
E05 2019 01 05 15 40 00 1.302281161770E-04-6.622258297284E-12 0.000000000000E+00
     6.200000000000E+01 2.834375000000E+01 3.811587339341E-09-2.166760192362E+00
     1.387670636177E-06 1.501374645159E-04 4.533678293228E-06 5.440606546402E+03
     5.748000000000E+05-4.284083843231E-08 1.365157471191E+00-2.048909664154E-08
     9.521853643767E-01 2.409687500000E+02 1.555979038144E+00-5.760954252583E-09
     4.393040130612E-10 5.210000000000E+02 2.034000000000E+03 0.000000000000E+00
     3.120000000000E+00 0.000000000000E+00-1.164153218269E-09-1.396983861923E-09
     5.760250000000E+05 0.000000000000E+00 0.000000000000E+00 0.000000000000E+00
E07 2019 01 05 15 40 00-1.069755526260E-04-7.105427357601E-12 0.000000000000E+00
     6.200000000000E+01 2.478125000000E+01 3.844088693152E-09-3.073503748751E+00
     1.145526766777E-06 1.461760839447E-04 4.382804036140E-06 5.440602655411E+03
     5.748000000000E+05-3.725290298462E-08 1.365176718804E+00-1.117587089539E-08
     9.522163767771E-01 2.438750000000E+02 1.048362659141E-01-5.779883612495E-09
     3.264421690552E-10 5.210000000000E+02 2.034000000000E+03 0.000000000000E+00
     3.120000000000E+00 0.000000000000E+00 0.000000000000E+00 0.000000000000E+00
     5.760250000000E+05 0.000000000000E+00 0.000000000000E+00 0.000000000000E+00
E08 2019 01 05 15 40 00 6.429334636778E-03-7.574385563203E-12 0.000000000000E+00
     6.200000000000E+01 2.906250000000E+01 3.729798218210E-09-2.692385201176E+00
     1.307576894760E-06 2.300129272044E-04 4.464760422707E-06 5.440603654861E+03
     5.748000000000E+05 4.656612873077E-08 1.356532059382E+00-4.097819328308E-08
     9.581578985967E-01 2.432187500000E+02 5.103691973028E-01-5.775954877419E-09
     3.560862609935E-10 5.210000000000E+02 2.034000000000E+03 0.000000000000E+00
     3.120000000000E+00 0.000000000000E+00-8.614733815193E-09-1.001171767712E-08
     5.760250000000E+05 0.000000000000E+00 0.000000000000E+00 0.000000000000E+00
E09 2019 01 05 15 40 00 6.567202100996E-03-1.136868377216E-11 0.000000000000E+00
     6.200000000000E+01 2.578125000000E+01 3.680153293156E-09 2.327306047924E-02
     1.227483153343E-06 2.495852531865E-04 4.993751645088E-06 5.440604602814E+03
     5.748000000000E+05-1.862645149231E-09 1.356527745237E+00-2.421438694000E-08
     9.581886403572E-01 2.342812500000E+02 1.496492136961E-01-5.655592720995E-09
     4.089456056545E-10 5.210000000000E+02 2.034000000000E+03 0.000000000000E+00
     3.120000000000E+00 0.000000000000E+00-3.259629011154E-09-3.958120942116E-09
     5.760250000000E+05 0.000000000000E+00 0.000000000000E+00 0.000000000000E+00
E11 2019 01 05 15 40 00 5.719070613850E-03 1.094235813071E-12 0.000000000000E+00
     6.200000000000E+01-1.938437500000E+02 2.744757187297E-09 2.626279619728E+00
    -8.994713425636E-06 2.375340554863E-04 2.602115273476E-06 5.440607742310E+03
     5.748000000000E+05 7.078051567078E-08-7.400048306629E-01 7.450580596924E-09
     9.819846984386E-01 2.923750000000E+02-3.579187968460E-01-5.644877988969E-09
    -2.682254583813E-10 5.210000000000E+02 2.034000000000E+03 0.000000000000E+00
     3.120000000000E+00 0.000000000000E+00-1.862645149231E-08-2.002343535423E-08
     5.760250000000E+05 0.000000000000E+00 0.000000000000E+00 0.000000000000E+00
E12 2019 01 05 15 40 00 5.875885486603E-03 8.425615760643E-11 0.000000000000E+00
     6.200000000000E+01-2.025312500000E+02 2.746542975968E-09-2.304616737109E+00
    -9.322538971901E-06 3.667746204883E-04 3.153458237648E-06 5.440607664108E+03
     5.748000000000E+05 2.421438694000E-08-7.400207969509E-01 3.352761268616E-08
     9.819987395263E-01 2.831562500000E+02-9.065415420311E-01-5.664878822084E-09
    -2.621537768999E-10 5.210000000000E+02 2.034000000000E+03 0.000000000000E+00
     3.120000000000E+00 0.000000000000E+00-1.559965312481E-08-1.606531441212E-08
     5.760250000000E+05 0.000000000000E+00 0.000000000000E+00 0.000000000000E+00
E13 2019 01 05 15 40 00 3.813627990894E-04 4.263256414561E-13 0.000000000000E+00
     6.200000000000E+01-1.832812500000E+02 2.730113720195E-09 7.468404324218E-01
    -8.495524525642E-06 3.301643300802E-04 4.064291715622E-06 5.440600492477E+03
     5.748000000000E+05-3.725290298462E-08-7.453074815282E-01 1.303851604462E-08
     9.852250195595E-01 2.606875000000E+02-1.613705719720E+00-5.586304120561E-09
    -2.582250418238E-10 5.210000000000E+02 2.034000000000E+03 0.000000000000E+00
     3.120000000000E+00 4.550000000000E+02-4.656612873077E-09-5.587935447693E-09
     5.760250000000E+05 0.000000000000E+00 0.000000000000E+00 0.000000000000E+00
E14 2019 01 05 15 40 00 6.464348058216E-03-5.684341886081E-12 0.000000000000E+00
     6.200000000000E+01-5.481250000000E+01 5.108069914472E-09 2.253486512610E+00
    -3.326684236526E-06 1.663958096178E-01-1.268275082111E-05 5.289387798309E+03
     5.748000000000E+05 2.732500433922E-06-1.340403811805E+00-7.767230272293E-07
     8.825559204880E-01 6.080625000000E+02 1.452738599342E+00-6.384908814223E-09
    -2.000083311498E-11 5.210000000000E+02 2.034000000000E+03 0.000000000000E+00
     3.120000000000E+00 4.550000000000E+02 3.306195139885E-08 3.725290298462E-08
     5.760250000000E+05 0.000000000000E+00 0.000000000000E+00 0.000000000000E+00
E15 2019 01 05 15 40 00 9.237825870514E-04-1.051603248925E-12 0.000000000000E+00
     6.200000000000E+01-1.847812500000E+02 2.639038497975E-09 1.603814389307E+00
    -8.540228009224E-06 3.795655211434E-04 3.688037395477E-06 5.440602514267E+03
     5.748000000000E+05-2.980232238770E-08-7.453188074400E-01-1.303851604462E-08
     9.851833468751E-01 2.712500000000E+02-1.688474503078E+00-5.555231397686E-09
    -2.467959943295E-10 5.210000000000E+02 2.034000000000E+03 0.000000000000E+00
     3.120000000000E+00 4.550000000000E+02 1.862645149231E-09 1.629814505577E-09
     5.760250000000E+05 0.000000000000E+00 0.000000000000E+00 0.000000000000E+00
E18 2019 01 05 15 40 00 5.628810904454E-03-2.849276370398E-11 0.000000000000E+00
     6.200000000000E+01-8.218750000000E+00 6.148827551920E-09-9.183065559769E-01
     1.013278961182E-06 1.664286747109E-01 4.746019840240E-06 5.289326776505E+03
     5.748000000000E+05-2.410262823105E-06-1.323199592369E+00 3.419816493988E-06
     8.817502695580E-01 2.660000000000E+02 1.437284220108E+00-1.010470661588E-08
    -4.693052627337E-10 5.210000000000E+02 2.034000000000E+03 0.000000000000E+00
     3.120000000000E+00 4.550000000000E+02 1.443549990654E-08 1.583248376846E-08
     5.760250000000E+05 0.000000000000E+00 0.000000000000E+00 0.000000000000E+00
E19 2019 01 05 15 40 00-9.355368092656E-06 2.273736754432E-13 0.000000000000E+00
     6.200000000000E+01 2.062500000000E+01 3.735869899691E-09-4.054770113451E-01
     1.044943928719E-06 1.402160851285E-04 4.632398486137E-06 5.440601797104E+03
     5.748000000000E+05 9.313225746155E-09 1.361885967971E+00 1.862645149231E-08
     9.579447704505E-01 2.400000000000E+02 2.228555907430E+00-5.686308286136E-09
     3.725155167665E-10 5.210000000000E+02 2.034000000000E+03 0.000000000000E+00
     3.120000000000E+00 0.000000000000E+00-8.847564458847E-09-9.080395102501E-09
     5.760250000000E+05 0.000000000000E+00 0.000000000000E+00 0.000000000000E+00
E21 2019 01 05 15 40 00-5.129396449775E-04-1.961097950698E-12 0.000000000000E+00
     6.200000000000E+01 1.888437500000E+02 2.325096849617E-09 8.272241967282E-01
     8.737668395042E-06 4.737649578601E-05 1.045316457748E-05 5.440639652252E+03
     5.748000000000E+05 2.607703208923E-08-2.828290767652E+00 1.862645149231E-08
     9.899201541936E-01 1.271875000000E+02-3.705010597363E-01-5.123784854777E-09
    -1.000041655749E-10 5.210000000000E+02 2.034000000000E+03 0.000000000000E+00
     3.120000000000E+00 0.000000000000E+00-2.328306436539E-09-3.026798367500E-09
     5.760250000000E+05 0.000000000000E+00 0.000000000000E+00 0.000000000000E+00
E24 2019 01 05 15 40 00 6.301554618403E-03-1.973887719942E-11 0.000000000000E+00
     6.200000000000E+01 1.695000000000E+02 2.287595287526E-09-2.359287309672E+00
     7.919967174530E-06 4.641438135877E-04 1.198612153530E-05 5.440628774643E+03
     5.748000000000E+05-3.352761268616E-08-2.822212502490E+00 1.303851604462E-08
     9.879236382078E-01 9.556250000000E+01 4.387152049921E-01-5.105569810333E-09
    -9.643258823294E-11 5.210000000000E+02 2.034000000000E+03 0.000000000000E+00
     3.120000000000E+00 0.000000000000E+00 4.284083843231E-08 4.796311259270E-08
     5.760250000000E+05 0.000000000000E+00 0.000000000000E+00 0.000000000000E+00
E25 2019 01 05 15 40 00 1.932811923325E-03-1.135447291745E-11 0.000000000000E+00
     6.200000000000E+01 1.517500000000E+02 2.402957235671E-09-1.319431658139E+00
     7.122755050659E-06 2.180342562497E-04 1.126341521740E-05 5.440633598328E+03
     5.748000000000E+05 3.166496753693E-08-2.828299934296E+00 2.048909664154E-08
     9.899257805765E-01 1.120312500000E+02-1.363892542982E+00-5.136999690942E-09
    -9.964700784071E-11 5.210000000000E+02 2.034000000000E+03 0.000000000000E+00
     3.120000000000E+00 0.000000000000E+00-1.396983861923E-09-1.629814505577E-09
     5.760250000000E+05 0.000000000000E+00 0.000000000000E+00 0.000000000000E+00
